[{"OBJECT_NAME":"STARLINK-3577","OBJECT_ID":"2022-022AJ","EPOCH":"2026-03-09T23:25:23.462400","MEAN_MOTION":15.08843477,"ECCENTRICITY":0.00014826,"INCLINATION":53.2178,"RA_OF_ASC_NODE":357.8357,"ARG_OF_PERICENTER":87.3728,"MEAN_ANOMALY":272.7434,"EPHEMERIS_TYPE":0,"CLASSIFICATION_TYPE":"U","NORAD_CAT_ID":51884,"ELEMENT_SET_NO":999,"REV_AT_EPOCH":22337,"BSTAR":0.00013437894,"MEAN_MOTION_DOT":1.852e-5,"MEAN_MOTION_DDOT":0},{"OBJECT_NAME":"SEDNA-2","OBJECT_ID":"2025-009DQ","EPOCH":"2026-03-09T19:10:28.282944","MEAN_MOTION":15.10492622,"ECCENTRICITY":0.0010309,"INCLINATION":97.4615,"RA_OF_ASC_NODE":144.8075,"ARG_OF_PERICENTER":53.026,"MEAN_ANOMALY":307.1912,"EPHEMERIS_TYPE":0,"CLASSIFICATION_TYPE":"U","NORAD_CAT_ID":63153,"ELEMENT_SET_NO":999,"REV_AT_EPOCH":6311,"BSTAR":0.00049393403,"MEAN_MOTION_DOT":8.085e-5,"MEAN_MOTION_DDOT":0}]
